<?xml version="1.0" encoding="UTF-8"?>
<ndm xmlns:xsi="http://www.w3.org/2001/XMLSchema-instance" xsi:noNamespaceSchemaLocation="https://sanaregistry.org/r/ndmxml_unqualified/ndmxml-2.0.0-master-2.0.xsd">
<omm id="CCSDS_OMM_VERS" version="2.0">
<header><CREATION_DATE/><ORIGINATOR/></header><body><segment><metadata><OBJECT_NAME>IRIDIUM 150</OBJECT_NAME><OBJECT_ID>2018-030J</OBJECT_ID><CENTER_NAME>EARTH</CENTER_NAME><REF_FRAME>TEME</REF_FRAME><TIME_SYSTEM>UTC</TIME_SYSTEM><MEAN_ELEMENT_THEORY>SGP4</MEAN_ELEMENT_THEORY></metadata><data><meanElements><EPOCH>2025-02-06T18:59:59.477568</EPOCH><MEAN_MOTION>14.34219629</MEAN_MOTION><ECCENTRICITY>.0002271</ECCENTRICITY><INCLINATION>86.4013</INCLINATION><RA_OF_ASC_NODE>137.5849</RA_OF_ASC_NODE><ARG_OF_PERICENTER>94.1809</ARG_OF_PERICENTER><MEAN_ANOMALY>265.9646</MEAN_ANOMALY></meanElements><tleParameters><EPHEMERIS_TYPE>0</EPHEMERIS_TYPE><CLASSIFICATION_TYPE>U</CLASSIFICATION_TYPE><NORAD_CAT_ID>43257</NORAD_CAT_ID><ELEMENT_SET_NO>999</ELEMENT_SET_NO><REV_AT_EPOCH>35917</REV_AT_EPOCH><BSTAR>.2102E-3</BSTAR><MEAN_MOTION_DOT>.608E-5</MEAN_MOTION_DOT><MEAN_MOTION_DDOT>0</MEAN_MOTION_DDOT></tleParameters></data></segment></body></omm>
<omm id="CCSDS_OMM_VERS" version="2.0">
<header><CREATION_DATE/><ORIGINATOR/></header><body><segment><metadata><OBJECT_NAME>IRIDIUM 143</OBJECT_NAME><OBJECT_ID>2018-030K</OBJECT_ID><CENTER_NAME>EARTH</CENTER_NAME><REF_FRAME>TEME</REF_FRAME><TIME_SYSTEM>UTC</TIME_SYSTEM><MEAN_ELEMENT_THEORY>SGP4</MEAN_ELEMENT_THEORY></metadata><data><meanElements><EPOCH>2025-02-06T18:32:35.415168</EPOCH><MEAN_MOTION>14.34218969</MEAN_MOTION><ECCENTRICITY>.0002595</ECCENTRICITY><INCLINATION>86.4017</INCLINATION><RA_OF_ASC_NODE>137.6662</RA_OF_ASC_NODE><ARG_OF_PERICENTER>93.2197</ARG_OF_PERICENTER><MEAN_ANOMALY>266.9295</MEAN_ANOMALY></meanElements><tleParameters><EPHEMERIS_TYPE>0</EPHEMERIS_TYPE><CLASSIFICATION_TYPE>U</CLASSIFICATION_TYPE><NORAD_CAT_ID>43258</NORAD_CAT_ID><ELEMENT_SET_NO>999</ELEMENT_SET_NO><REV_AT_EPOCH>35911</REV_AT_EPOCH><BSTAR>.80296E-4</BSTAR><MEAN_MOTION_DOT>.245E-5</MEAN_MOTION_DOT><MEAN_MOTION_DDOT>0</MEAN_MOTION_DDOT></tleParameters></data></segment></body></omm>
<omm id="CCSDS_OMM_VERS" version="2.0">
<header><CREATION_DATE/><ORIGINATOR/></header><body><segment><metadata><OBJECT_NAME>IRIDIUM 161</OBJECT_NAME><OBJECT_ID>2018-047C</OBJECT_ID><CENTER_NAME>EARTH</CENTER_NAME><REF_FRAME>TEME</REF_FRAME><TIME_SYSTEM>UTC</TIME_SYSTEM><MEAN_ELEMENT_THEORY>SGP4</MEAN_ELEMENT_THEORY></metadata><data><meanElements><EPOCH>2025-02-05T23:14:10.715712</EPOCH><MEAN_MOTION>14.43283969</MEAN_MOTION><ECCENTRICITY>.0002072</ECCENTRICITY><INCLINATION>86.4489</INCLINATION><RA_OF_ASC_NODE>295.8313</RA_OF_ASC_NODE><ARG_OF_PERICENTER>84.3441</ARG_OF_PERICENTER><MEAN_ANOMALY>275.7996</MEAN_ANOMALY></meanElements><tleParameters><EPHEMERIS_TYPE>0</EPHEMERIS_TYPE><CLASSIFICATION_TYPE>U</CLASSIFICATION_TYPE><NORAD_CAT_ID>43478</NORAD_CAT_ID><ELEMENT_SET_NO>999</ELEMENT_SET_NO><REV_AT_EPOCH>35356</REV_AT_EPOCH><BSTAR>.23899E-3</BSTAR><MEAN_MOTION_DOT>.824E-5</MEAN_MOTION_DOT><MEAN_MOTION_DDOT>0</MEAN_MOTION_DDOT></tleParameters></data></segment></body></omm>
<omm id="CCSDS_OMM_VERS" version="2.0">
<header><CREATION_DATE/><ORIGINATOR/></header><body><segment><metadata><OBJECT_NAME>IRIDIUM 152</OBJECT_NAME><OBJECT_ID>2018-047D</OBJECT_ID><CENTER_NAME>EARTH</CENTER_NAME><REF_FRAME>TEME</REF_FRAME><TIME_SYSTEM>UTC</TIME_SYSTEM><MEAN_ELEMENT_THEORY>SGP4</MEAN_ELEMENT_THEORY></metadata><data><meanElements><EPOCH>2025-02-06T06:10:01.992000</EPOCH><MEAN_MOTION>14.34220591</MEAN_MOTION><ECCENTRICITY>.0002031</ECCENTRICITY><INCLINATION>86.3965</INCLINATION><RA_OF_ASC_NODE>295.5703</RA_OF_ASC_NODE><ARG_OF_PERICENTER>86.3284</ARG_OF_PERICENTER><MEAN_ANOMALY>273.8144</MEAN_ANOMALY></meanElements><tleParameters><EPHEMERIS_TYPE>0</EPHEMERIS_TYPE><CLASSIFICATION_TYPE>U</CLASSIFICATION_TYPE><NORAD_CAT_ID>43479</NORAD_CAT_ID><ELEMENT_SET_NO>999</ELEMENT_SET_NO><REV_AT_EPOCH>35141</REV_AT_EPOCH><BSTAR>.16556E-3</BSTAR><MEAN_MOTION_DOT>.483E-5</MEAN_MOTION_DOT><MEAN_MOTION_DDOT>0</MEAN_MOTION_DDOT></tleParameters></data></segment></body></omm>
<omm id="CCSDS_OMM_VERS" version="2.0">
<header><CREATION_DATE/><ORIGINATOR/></header><body><segment><metadata><OBJECT_NAME>IRIDIUM 147</OBJECT_NAME><OBJECT_ID>2018-047E</OBJECT_ID><CENTER_NAME>EARTH</CENTER_NAME><REF_FRAME>TEME</REF_FRAME><TIME_SYSTEM>UTC</TIME_SYSTEM><MEAN_ELEMENT_THEORY>SGP4</MEAN_ELEMENT_THEORY></metadata><data><meanElements><EPOCH>2025-02-06T18:02:26.221632</EPOCH><MEAN_MOTION>14.34216243</MEAN_MOTION><ECCENTRICITY>.0001835</ECCENTRICITY><INCLINATION>86.3964</INCLINATION><RA_OF_ASC_NODE>295.3595</RA_OF_ASC_NODE><ARG_OF_PERICENTER>79.0317</ARG_OF_PERICENTER><MEAN_ANOMALY>281.1085</MEAN_ANOMALY></meanElements><tleParameters><EPHEMERIS_TYPE>0</EPHEMERIS_TYPE><CLASSIFICATION_TYPE>U</CLASSIFICATION_TYPE><NORAD_CAT_ID>43480</NORAD_CAT_ID><ELEMENT_SET_NO>999</ELEMENT_SET_NO><REV_AT_EPOCH>35147</REV_AT_EPOCH><BSTAR>.14422E-3</BSTAR><MEAN_MOTION_DOT>.424E-5</MEAN_MOTION_DOT><MEAN_MOTION_DDOT>0</MEAN_MOTION_DDOT></tleParameters></data></segment></body></omm>
<omm id="CCSDS_OMM_VERS" version="2.0">
<header><CREATION_DATE/><ORIGINATOR/></header><body><segment><metadata><OBJECT_NAME>IRIDIUM 110</OBJECT_NAME><OBJECT_ID>2018-047F</OBJECT_ID><CENTER_NAME>EARTH</CENTER_NAME><REF_FRAME>TEME</REF_FRAME><TIME_SYSTEM>UTC</TIME_SYSTEM><MEAN_ELEMENT_THEORY>SGP4</MEAN_ELEMENT_THEORY></metadata><data><meanElements><EPOCH>2025-02-06T18:11:34.233504</EPOCH><MEAN_MOTION>14.34219328</MEAN_MOTION><ECCENTRICITY>.000176</ECCENTRICITY><INCLINATION>86.3965</INCLINATION><RA_OF_ASC_NODE>295.4363</RA_OF_ASC_NODE><ARG_OF_PERICENTER>94.2132</ARG_OF_PERICENTER><MEAN_ANOMALY>265.9265</MEAN_ANOMALY></meanElements><tleParameters><EPHEMERIS_TYPE>0</EPHEMERIS_TYPE><CLASSIFICATION_TYPE>U</CLASSIFICATION_TYPE><NORAD_CAT_ID>43481</NORAD_CAT_ID><ELEMENT_SET_NO>999</ELEMENT_SET_NO><REV_AT_EPOCH>35146</REV_AT_EPOCH><BSTAR>.20367E-3</BSTAR><MEAN_MOTION_DOT>.59E-5</MEAN_MOTION_DOT><MEAN_MOTION_DDOT>0</MEAN_MOTION_DDOT></tleParameters></data></segment></body></omm>
<omm id="CCSDS_OMM_VERS" version="2.0">
<header><CREATION_DATE/><ORIGINATOR/></header><body><segment><metadata><OBJECT_NAME>IRIDIUM 162</OBJECT_NAME><OBJECT_ID>2018-047G</OBJECT_ID><CENTER_NAME>EARTH</CENTER_NAME><REF_FRAME>TEME</REF_FRAME><TIME_SYSTEM>UTC</TIME_SYSTEM><MEAN_ELEMENT_THEORY>SGP4</MEAN_ELEMENT_THEORY></metadata><data><meanElements><EPOCH>2025-02-06T19:03:10.380096</EPOCH><MEAN_MOTION>14.43278481</MEAN_MOTION><ECCENTRICITY>.0002068</ECCENTRICITY><INCLINATION>86.4485</INCLINATION><RA_OF_ASC_NODE>295.3831</RA_OF_ASC_NODE><ARG_OF_PERICENTER>90.6463</ARG_OF_PERICENTER><MEAN_ANOMALY>269.4974</MEAN_ANOMALY></meanElements><tleParameters><EPHEMERIS_TYPE>0</EPHEMERIS_TYPE><CLASSIFICATION_TYPE>U</CLASSIFICATION_TYPE><NORAD_CAT_ID>43482</NORAD_CAT_ID><ELEMENT_SET_NO>999</ELEMENT_SET_NO><REV_AT_EPOCH>35367</REV_AT_EPOCH><BSTAR>.22133E-3</BSTAR><MEAN_MOTION_DOT>.765E-5</MEAN_MOTION_DOT><MEAN_MOTION_DDOT>0</MEAN_MOTION_DDOT></tleParameters></data></segment></body></omm>
<omm id="CCSDS_OMM_VERS" version="2.0">
<header><CREATION_DATE/><ORIGINATOR/></header><body><segment><metadata><OBJECT_NAME>IRIDIUM 160</OBJECT_NAME><OBJECT_ID>2018-061A</OBJECT_ID><CENTER_NAME>EARTH</CENTER_NAME><REF_FRAME>TEME</REF_FRAME><TIME_SYSTEM>UTC</TIME_SYSTEM><MEAN_ELEMENT_THEORY>SGP4</MEAN_ELEMENT_THEORY></metadata><data><meanElements><EPOCH>2025-02-06T16:53:34.531296</EPOCH><MEAN_MOTION>14.34218427</MEAN_MOTION><ECCENTRICITY>.0001851</ECCENTRICITY><INCLINATION>86.3929</INCLINATION><RA_OF_ASC_NODE>263.8110</RA_OF_ASC_NODE><ARG_OF_PERICENTER>88.5578</ARG_OF_PERICENTER><MEAN_ANOMALY>271.5830</MEAN_ANOMALY></meanElements><tleParameters><EPHEMERIS_TYPE>0</EPHEMERIS_TYPE><CLASSIFICATION_TYPE>U</CLASSIFICATION_TYPE><NORAD_CAT_ID>43569</NORAD_CAT_ID><ELEMENT_SET_NO>999</ELEMENT_SET_NO><REV_AT_EPOCH>34235</REV_AT_EPOCH><BSTAR>.18025E-3</BSTAR><MEAN_MOTION_DOT>.525E-5</MEAN_MOTION_DOT><MEAN_MOTION_DDOT>0</MEAN_MOTION_DDOT></tleParameters></data></segment></body></omm>

</ndm>
