IRIDIUM 150             
1 43257U 18030J   25037.79166062  .00000608  00000+0  21020-3 0  9998
2 43257  86.4013 137.5849 0002271  94.1809 265.9646 14.34219629359179
IRIDIUM 143             
1 43258U 18030K   25037.77263212  .00000245  00000+0  80296-4 0  9990
2 43258  86.4017 137.6662 0002595  93.2197 266.9295 14.34218969359118
IRIDIUM 161             
1 43478U 18047C   25036.96817958  .00000824  00000+0  23899-3 0  9992
2 43478  86.4489 295.8313 0002072  84.3441 275.7996 14.43283969353569
IRIDIUM 152             
1 43479U 18047D   25037.25696750  .00000483  00000+0  16556-3 0  9994
2 43479  86.3965 295.5703 0002031  86.3284 273.8144 14.34220591351418
IRIDIUM 147             
1 43480U 18047E   25037.75169238  .00000424  00000+0  14422-3 0  9992
2 43480  86.3964 295.3595 0001835  79.0317 281.1085 14.34216243351474
IRIDIUM 110             
1 43481U 18047F   25037.75803511  .00000590  00000+0  20367-3 0  9991
2 43481  86.3965 295.4363 0001760  94.2132 265.9265 14.34219328351467
IRIDIUM 162             
1 43482U 18047G   25037.79387014  .00000765  00000+0  22133-3 0  9998
2 43482  86.4485 295.3831 0002068  90.6463 269.4974 14.43278481353670
IRIDIUM 160             
1 43569U 18061A   25037.70387189  .00000525  00000+0  18025-3 0  9993
2 43569  86.3929 263.8110 0001851  88.5578 271.5830 14.34218427342352
